CCSDS_OMM_VERS = 2.0
CREATION_DATE  = 
ORIGINATOR     = 

OBJECT_NAME    = SL-3 R/B
OBJECT_ID      = 1982-079B
CENTER_NAME    = EARTH
REF_FRAME      = TEME
TIME_SYSTEM    = UTC
MEAN_ELEMENT_THEORY = SGP/SGP4

EPOCH          = 2026-02-09T18:33:03.927168
MEAN_MOTION    = 15.24387122
ECCENTRICITY   = .002416
INCLINATION    = 81.1446
RA_OF_ASC_NODE = 226.0317
ARG_OF_PERICENTER = 260.6981
MEAN_ANOMALY   = 99.1520

EPHEMERIS_TYPE = 0
CLASSIFICATION_TYPE = U
NORAD_CAT_ID   = 13403
ELEMENT_SET_NO = 999
REV_AT_EPOCH   = 37344
BSTAR          = .25289E-3
MEAN_MOTION_DOT = .6271E-4
MEAN_MOTION_DDOT = 0

CCSDS_OMM_VERS = 2.0
CREATION_DATE  = 
ORIGINATOR     = 

OBJECT_NAME    = SL-14 R/B
OBJECT_ID      = 1982-092B
CENTER_NAME    = EARTH
REF_FRAME      = TEME
TIME_SYSTEM    = UTC
MEAN_ELEMENT_THEORY = SGP/SGP4

EPOCH          = 2026-02-09T18:54:55.707264
MEAN_MOTION    = 14.86635445
ECCENTRICITY   = .0021239
INCLINATION    = 82.5705
RA_OF_ASC_NODE = 167.4884
ARG_OF_PERICENTER = 37.3782
MEAN_ANOMALY   = 75.7263

EPHEMERIS_TYPE = 0
CLASSIFICATION_TYPE = U
NORAD_CAT_ID   = 13553
ELEMENT_SET_NO = 999
REV_AT_EPOCH   = 32478
BSTAR          = .73441E-4
MEAN_MOTION_DOT = .679E-5
MEAN_MOTION_DDOT = 0

CCSDS_OMM_VERS = 2.0
CREATION_DATE  = 
ORIGINATOR     = 

OBJECT_NAME    = SL-3 R/B
OBJECT_ID      = 1983-010B
CENTER_NAME    = EARTH
REF_FRAME      = TEME
TIME_SYSTEM    = UTC
MEAN_ELEMENT_THEORY = SGP/SGP4

EPOCH          = 2026-02-09T11:21:37.445184
MEAN_MOTION    = 15.45350432
ECCENTRICITY   = .00180217
INCLINATION    = 81.1026
RA_OF_ASC_NODE = 36.8147
ARG_OF_PERICENTER = 140.5545
MEAN_ANOMALY   = 219.7015

EPHEMERIS_TYPE = 0
CLASSIFICATION_TYPE = U
NORAD_CAT_ID   = 13819
ELEMENT_SET_NO = 999
REV_AT_EPOCH   = 35358
BSTAR          = .3459405E-3
MEAN_MOTION_DOT = .16647E-3
MEAN_MOTION_DDOT = 0

CCSDS_OMM_VERS = 2.0
CREATION_DATE  = 
ORIGINATOR     = 

OBJECT_NAME    = SL-3 R/B
OBJECT_ID      = 1983-075B
CENTER_NAME    = EARTH
REF_FRAME      = TEME
TIME_SYSTEM    = UTC
MEAN_ELEMENT_THEORY = SGP/SGP4

EPOCH          = 2026-02-09T18:38:10.584960
MEAN_MOTION    = 15.37696293
ECCENTRICITY   = .0020955
INCLINATION    = 97.6136
RA_OF_ASC_NODE = 44.3174
ARG_OF_PERICENTER = 334.9523
MEAN_ANOMALY   = 25.0702

EPHEMERIS_TYPE = 0
CLASSIFICATION_TYPE = U
NORAD_CAT_ID   = 14208
ELEMENT_SET_NO = 999
REV_AT_EPOCH   = 32586
BSTAR          = .34251E-3
MEAN_MOTION_DOT = .1269E-3
MEAN_MOTION_DDOT = 0

CCSDS_OMM_VERS = 2.0
CREATION_DATE  = 
ORIGINATOR     = 

OBJECT_NAME    = COSMOS 1536
OBJECT_ID      = 1984-013A
CENTER_NAME    = EARTH
REF_FRAME      = TEME
TIME_SYSTEM    = UTC
MEAN_ELEMENT_THEORY = SGP/SGP4

EPOCH          = 2026-02-09T17:49:06.903264
MEAN_MOTION    = 15.23450952
ECCENTRICITY   = .0014789
INCLINATION    = 82.5468
RA_OF_ASC_NODE = 135.6173
ARG_OF_PERICENTER = 26.4886
MEAN_ANOMALY   = 333.7103

EPHEMERIS_TYPE = 0
CLASSIFICATION_TYPE = U
NORAD_CAT_ID   = 14699
ELEMENT_SET_NO = 999
REV_AT_EPOCH   = 26836
BSTAR          = .27737E-3
MEAN_MOTION_DOT = .666E-4
MEAN_MOTION_DDOT = 0

CCSDS_OMM_VERS = 2.0
CREATION_DATE  = 
ORIGINATOR     = 

OBJECT_NAME    = SL-14 R/B
OBJECT_ID      = 1984-027B
CENTER_NAME    = EARTH
REF_FRAME      = TEME
TIME_SYSTEM    = UTC
MEAN_ELEMENT_THEORY = SGP/SGP4

EPOCH          = 2026-02-09T16:19:56.213472
MEAN_MOTION    = 14.85948715
ECCENTRICITY   = .0019424
INCLINATION    = 82.5396
RA_OF_ASC_NODE = 271.2880
ARG_OF_PERICENTER = 68.0175
MEAN_ANOMALY   = 292.3102

EPHEMERIS_TYPE = 0
CLASSIFICATION_TYPE = U
NORAD_CAT_ID   = 14820
ELEMENT_SET_NO = 999
REV_AT_EPOCH   = 24347
BSTAR          = .5013E-4
MEAN_MOTION_DOT = .463E-5
MEAN_MOTION_DDOT = 0

CCSDS_OMM_VERS = 2.0
CREATION_DATE  = 
ORIGINATOR     = 

OBJECT_NAME    = SL-8 R/B
OBJECT_ID      = 1985-006B
CENTER_NAME    = EARTH
REF_FRAME      = TEME
TIME_SYSTEM    = UTC
MEAN_ELEMENT_THEORY = SGP/SGP4

EPOCH          = 2026-02-09T19:50:09.473856
MEAN_MOTION    = 14.37769359
ECCENTRICITY   = .0019479
INCLINATION    = 74.0470
RA_OF_ASC_NODE = 312.4190
ARG_OF_PERICENTER = 235.6728
MEAN_ANOMALY   = 188.0633

EPHEMERIS_TYPE = 0
CLASSIFICATION_TYPE = U
NORAD_CAT_ID   = 15483
ELEMENT_SET_NO = 999
REV_AT_EPOCH   = 15002
BSTAR          = .90888E-4
MEAN_MOTION_DOT = .248E-5
MEAN_MOTION_DDOT = 0

CCSDS_OMM_VERS = 2.0
CREATION_DATE  = 
ORIGINATOR     = 

OBJECT_NAME    = SL-12 R/B(2)
OBJECT_ID      = 1985-042D
CENTER_NAME    = EARTH
REF_FRAME      = TEME
TIME_SYSTEM    = UTC
MEAN_ELEMENT_THEORY = SGP/SGP4

EPOCH          = 2026-02-09T16:57:22.610016
MEAN_MOTION    = 14.21974521
ECCENTRICITY   = .0034855
INCLINATION    = 71.1088
RA_OF_ASC_NODE = 146.8486
ARG_OF_PERICENTER = 173.0206
MEAN_ANOMALY   = 299.3710

EPHEMERIS_TYPE = 0
CLASSIFICATION_TYPE = U
NORAD_CAT_ID   = 15772
ELEMENT_SET_NO = 999
REV_AT_EPOCH   = 11041
BSTAR          = .11067E-3
MEAN_MOTION_DOT = .198E-5
MEAN_MOTION_DDOT = 0

CCSDS_OMM_VERS = 2.0
CREATION_DATE  = 
ORIGINATOR     = 

OBJECT_NAME    = SL-14 R/B
OBJECT_ID      = 1985-069B
CENTER_NAME    = EARTH
REF_FRAME      = TEME
TIME_SYSTEM    = UTC
MEAN_ELEMENT_THEORY = SGP/SGP4

EPOCH          = 2026-02-09T12:56:20.920992
MEAN_MOTION    = 14.86399672
ECCENTRICITY   = .0017252
INCLINATION    = 82.5241
RA_OF_ASC_NODE = 51.4092
ARG_OF_PERICENTER = 287.2851
MEAN_ANOMALY   = 72.6478

EPHEMERIS_TYPE = 0
CLASSIFICATION_TYPE = U
NORAD_CAT_ID   = 15945
ELEMENT_SET_NO = 999
REV_AT_EPOCH   = 16865
BSTAR          = .64871E-4
MEAN_MOTION_DOT = .598E-5
MEAN_MOTION_DDOT = 0

CCSDS_OMM_VERS = 2.0
CREATION_DATE  = 
ORIGINATOR     = 

OBJECT_NAME    = SL-16 R/B
OBJECT_ID      = 1985-097B
CENTER_NAME    = EARTH
REF_FRAME      = TEME
TIME_SYSTEM    = UTC
MEAN_ELEMENT_THEORY = SGP/SGP4

EPOCH          = 2026-02-09T19:41:36.464352
MEAN_MOTION    = 14.16596196
ECCENTRICITY   = .0009658
INCLINATION    = 71.0018
RA_OF_ASC_NODE = 199.2218
ARG_OF_PERICENTER = 292.1926
MEAN_ANOMALY   = 172.0880

EPHEMERIS_TYPE = 0
CLASSIFICATION_TYPE = U
NORAD_CAT_ID   = 16182
ELEMENT_SET_NO = 999
REV_AT_EPOCH   = 8328
BSTAR          = -.43963E-4
MEAN_MOTION_DOT = -.136E-5
MEAN_MOTION_DDOT = 0

CCSDS_OMM_VERS = 2.0
CREATION_DATE  = 
ORIGINATOR     = 

OBJECT_NAME    = SL-14 R/B
OBJECT_ID      = 1986-006B
CENTER_NAME    = EARTH
REF_FRAME      = TEME
TIME_SYSTEM    = UTC
MEAN_ELEMENT_THEORY = SGP/SGP4

EPOCH          = 2026-02-09T17:24:42.564096
MEAN_MOTION    = 14.86777030
ECCENTRICITY   = .0076833
INCLINATION    = 82.5265
RA_OF_ASC_NODE = 286.0587
ARG_OF_PERICENTER = 6.5988
MEAN_ANOMALY   = 353.6221

EPHEMERIS_TYPE = 0
CLASSIFICATION_TYPE = U
NORAD_CAT_ID   = 16496
ELEMENT_SET_NO = 999
REV_AT_EPOCH   = 14505
BSTAR          = .81349E-4
MEAN_MOTION_DOT = .791E-5
MEAN_MOTION_DDOT = 0

CCSDS_OMM_VERS = 2.0
CREATION_DATE  = 
ORIGINATOR     = 

OBJECT_NAME    = COSMOS 1743
OBJECT_ID      = 1986-034A
CENTER_NAME    = EARTH
REF_FRAME      = TEME
TIME_SYSTEM    = UTC
MEAN_ELEMENT_THEORY = SGP/SGP4

EPOCH          = 2026-02-09T15:06:51.062688
MEAN_MOTION    = 15.56514050
ECCENTRICITY   = .0005023
INCLINATION    = 82.5330
RA_OF_ASC_NODE = 103.2323
ARG_OF_PERICENTER = 49.4090
MEAN_ANOMALY   = 310.7601

EPHEMERIS_TYPE = 0
CLASSIFICATION_TYPE = U
NORAD_CAT_ID   = 16719
ELEMENT_SET_NO = 999
REV_AT_EPOCH   = 17588
BSTAR          = .44599E-3
MEAN_MOTION_DOT = .31726E-3
MEAN_MOTION_DDOT = 0

