SL-3 R/B                
1 13403U 82079B   26040.77296212  .00006271  00000+0  25289-3 0  9999
2 13403  81.1446 226.0317 0024160 260.6981  99.1520 15.24387122373445
SL-14 R/B               
1 13553U 82092B   26040.78814476  .00000679  00000+0  73441-4 0  9999
2 13553  82.5705 167.4884 0021239  37.3782  75.7263 14.86635445324781
SL-3 R/B                
1 13819U 83010B   26040.47335006  .00016647  00000+0  34594-3 0  9995
2 13819  81.1026  36.8147 0018021 140.5545 219.7015 15.45350432353588
SL-3 R/B                
1 14208U 83075B   26040.77651140  .00012690  00000+0  34251-3 0  9996
2 14208  97.6136  44.3174 0020955 334.9523  25.0702 15.37696293325863
COSMOS 1536             
1 14699U 84013A   26040.74244101  .00006660  00000+0  27737-3 0  9996
2 14699  82.5468 135.6173 0014789  26.4886 333.7103 15.23450952268364
SL-14 R/B               
1 14820U 84027B   26040.68051173  .00000463  00000+0  50130-4 0  9994
2 14820  82.5396 271.2880 0019424  68.0175 292.3102 14.85948715243476
SL-8 R/B                
1 15483U 85006B   26040.82649854  .00000248  00000+0  90888-4 0  9998
2 15483  74.0470 312.4190 0019479 235.6728 188.0633 14.37769359150029
SL-12 R/B(2)            
1 15772U 85042D   26040.70651169  .00000198  00000+0  11067-3 0  9993
2 15772  71.1088 146.8486 0034855 173.0206 299.3710 14.21974521110414
SL-14 R/B               
1 15945U 85069B   26040.53913103  .00000598  00000+0  64871-4 0  9990
2 15945  82.5241  51.4092 0017252 287.2851  72.6478 14.86399672168654
SL-16 R/B               
1 16182U 85097B   26040.82056093 -.00000136  00000+0 -43963-4 0  9992
2 16182  71.0018 199.2218 0009658 292.1926 172.0880 14.16596196 83283
SL-14 R/B               
1 16496U 86006B   26040.72549264  .00000791  00000+0  81349-4 0  9992
2 16496  82.5265 286.0587 0076833   6.5988 353.6221 14.86777030145055
COSMOS 1743             
1 16719U 86034A   26040.62975767  .00031726  00000+0  44599-3 0  9998
2 16719  82.5330 103.2323 0005023  49.4090 310.7601 15.56514050175886
